[{"OBJECT_NAME":"HELIOS 1B","OBJECT_ID":"1999-064A","EPOCH":"2026-04-23T04:03:55.880928","MEAN_MOTION":14.87852397,"ECCENTRICITY":4.367e-5,"INCLINATION":98.1654,"RA_OF_ASC_NODE":16.7125,"ARG_OF_PERICENTER":63.0321,"MEAN_ANOMALY":297.0939,"EPHEMERIS_TYPE":0,"CLASSIFICATION_TYPE":"U","NORAD_CAT_ID":25977,"ELEMENT_SET_NO":999,"REV_AT_EPOCH":69187,"BSTAR":0.00011575134,"MEAN_MOTION_DOT":1.0e-5,"MEAN_MOTION_DDOT":0},{"OBJECT_NAME":"TERRA","OBJECT_ID":"1999-068A","EPOCH":"2026-04-23T05:34:57.731232","MEAN_MOTION":14.61057713,"ECCENTRICITY":0.00033267,"INCLINATION":97.9507,"RA_OF_ASC_NODE":164.9452,"ARG_OF_PERICENTER":62.1135,"MEAN_ANOMALY":8.7855,"EPHEMERIS_TYPE":0,"CLASSIFICATION_TYPE":"U","NORAD_CAT_ID":25994,"ELEMENT_SET_NO":999,"REV_AT_EPOCH":40158,"BSTAR":6.3234861e-5,"MEAN_MOTION_DOT":2.66e-6,"MEAN_MOTION_DDOT":0},{"OBJECT_NAME":"SL-16 R/B","OBJECT_ID":"2000-006B","EPOCH":"2026-04-23T02:22:19.636896","MEAN_MOTION":14.15829081,"ECCENTRICITY":0.00146577,"INCLINATION":71.0044,"RA_OF_ASC_NODE":4.4595,"ARG_OF_PERICENTER":117.7026,"MEAN_ANOMALY":242.5586,"EPHEMERIS_TYPE":0,"CLASSIFICATION_TYPE":"U","NORAD_CAT_ID":26070,"ELEMENT_SET_NO":999,"REV_AT_EPOCH":35484,"BSTAR":0.00011085689,"MEAN_MOTION_DOT":1.71e-6,"MEAN_MOTION_DDOT":0},{"OBJECT_NAME":"TITAN 4B R/B","OBJECT_ID":"2000-047B","EPOCH":"2026-04-23T05:11:13.368480","MEAN_MOTION":15.09897409,"ECCENTRICITY":0.00422273,"INCLINATION":67.9883,"RA_OF_ASC_NODE":275.266,"ARG_OF_PERICENTER":344.487,"MEAN_ANOMALY":15.4981,"EPHEMERIS_TYPE":0,"CLASSIFICATION_TYPE":"U","NORAD_CAT_ID":26474,"ELEMENT_SET_NO":999,"REV_AT_EPOCH":39963,"BSTAR":0.00012963166,"MEAN_MOTION_DOT":2.009e-5,"MEAN_MOTION_DDOT":0},{"OBJECT_NAME":"ENVISAT","OBJECT_ID":"2002-009A","EPOCH":"2026-04-23T02:26:54.554784","MEAN_MOTION":14.39051004,"ECCENTRICITY":0.00011486,"INCLINATION":98.3794,"RA_OF_ASC_NODE":65.6624,"ARG_OF_PERICENTER":86.2003,"MEAN_ANOMALY":284.6312,"EPHEMERIS_TYPE":0,"CLASSIFICATION_TYPE":"U","NORAD_CAT_ID":27386,"ELEMENT_SET_NO":999,"REV_AT_EPOCH":26556,"BSTAR":3.781393e-5,"MEAN_MOTION_DOT":7.4e-7,"MEAN_MOTION_DDOT":0},{"OBJECT_NAME":"IDEFIX & ARIANE 42P R/B","OBJECT_ID":"2002-021B","EPOCH":"2026-04-23T05:51:33.213888","MEAN_MOTION":14.31053945,"ECCENTRICITY":0.00128993,"INCLINATION":98.5918,"RA_OF_ASC_NODE":51.3323,"ARG_OF_PERICENTER":59.0962,"MEAN_ANOMALY":301.1487,"EPHEMERIS_TYPE":0,"CLASSIFICATION_TYPE":"U","NORAD_CAT_ID":27422,"ELEMENT_SET_NO":999,"REV_AT_EPOCH":25039,"BSTAR":8.2077348e-5,"MEAN_MOTION_DOT":1.73e-6,"MEAN_MOTION_DDOT":0},{"OBJECT_NAME":"AQUA","OBJECT_ID":"2002-022A","EPOCH":"2026-04-23T05:57:02.389248","MEAN_MOTION":14.62068599,"ECCENTRICITY":0.00019919,"INCLINATION":98.4241,"RA_OF_ASC_NODE":81.4499,"ARG_OF_PERICENTER":99.0164,"MEAN_ANOMALY":14.0495,"EPHEMERIS_TYPE":0,"CLASSIFICATION_TYPE":"U","NORAD_CAT_ID":27424,"ELEMENT_SET_NO":999,"REV_AT_EPOCH":27524,"BSTAR":0.00013074651,"MEAN_MOTION_DOT":6.07e-6,"MEAN_MOTION_DDOT":0},{"OBJECT_NAME":"CZ-4B R/B","OBJECT_ID":"2002-024C","EPOCH":"2026-04-23T03:08:55.186656","MEAN_MOTION":14.1455513,"ECCENTRICITY":0.00490995,"INCLINATION":98.875,"RA_OF_ASC_NODE":166.2947,"ARG_OF_PERICENTER":256.4402,"MEAN_ANOMALY":122.6457,"EPHEMERIS_TYPE":0,"CLASSIFICATION_TYPE":"U","NORAD_CAT_ID":27432,"ELEMENT_SET_NO":999,"REV_AT_EPOCH":23552,"BSTAR":2.965662e-5,"MEAN_MOTION_DOT":1.3e-7,"MEAN_MOTION_DDOT":0},{"OBJECT_NAME":"MIDORI II (ADEOS-II)","OBJECT_ID":"2002-056A","EPOCH":"2026-04-23T02:47:18.298464","MEAN_MOTION":14.29316537,"ECCENTRICITY":6.652e-5,"INCLINATION":98.7838,"RA_OF_ASC_NODE":71.9226,"ARG_OF_PERICENTER":146.1334,"MEAN_ANOMALY":213.989,"EPHEMERIS_TYPE":0,"CLASSIFICATION_TYPE":"U","NORAD_CAT_ID":27597,"ELEMENT_SET_NO":999,"REV_AT_EPOCH":21664,"BSTAR":9.9433473e-5,"MEAN_MOTION_DOT":2.08e-6,"MEAN_MOTION_DDOT":0},{"OBJECT_NAME":"H-2A R/B","OBJECT_ID":"2002-056E","EPOCH":"2026-04-23T07:43:08.793120","MEAN_MOTION":14.33791125,"ECCENTRICITY":0.00708993,"INCLINATION":98.3273,"RA_OF_ASC_NODE":72.0097,"ARG_OF_PERICENTER":29.5538,"MEAN_ANOMALY":139.6175,"EPHEMERIS_TYPE":0,"CLASSIFICATION_TYPE":"U","NORAD_CAT_ID":27601,"ELEMENT_SET_NO":999,"REV_AT_EPOCH":22050,"BSTAR":0.00010031156,"MEAN_MOTION_DOT":2.45e-6,"MEAN_MOTION_DDOT":0},{"OBJECT_NAME":"CZ-4B R/B","OBJECT_ID":"2003-049C","EPOCH":"2026-04-22T22:40:06.400128","MEAN_MOTION":14.5505726,"ECCENTRICITY":0.0049338,"INCLINATION":98.69,"RA_OF_ASC_NODE":109.5967,"ARG_OF_PERICENTER":96.5211,"MEAN_ANOMALY":264.1605,"EPHEMERIS_TYPE":0,"CLASSIFICATION_TYPE":"U","NORAD_CAT_ID":28059,"ELEMENT_SET_NO":999,"REV_AT_EPOCH":19303,"BSTAR":7.1783e-5,"MEAN_MOTION_DOT":2.63e-6,"MEAN_MOTION_DDOT":0},{"OBJECT_NAME":"CZ-2C R/B","OBJECT_ID":"2004-012C","EPOCH":"2026-04-23T04:10:25.134528","MEAN_MOTION":15.69980463,"ECCENTRICITY":0.00139126,"INCLINATION":97.7136,"RA_OF_ASC_NODE":182.852,"ARG_OF_PERICENTER":145.1781,"MEAN_ANOMALY":215.0394,"EPHEMERIS_TYPE":0,"CLASSIFICATION_TYPE":"U","NORAD_CAT_ID":28222,"ELEMENT_SET_NO":999,"REV_AT_EPOCH":21124,"BSTAR":0.00043962497,"MEAN_MOTION_DOT":0.00053107,"MEAN_MOTION_DDOT":0},{"OBJECT_NAME":"SL-16 R/B","OBJECT_ID":"2004-021B","EPOCH":"2026-04-23T00:08:26.905344","MEAN_MOTION":14.14605099,"ECCENTRICITY":0.00067669,"INCLINATION":70.9991,"RA_OF_ASC_NODE":139.495,"ARG_OF_PERICENTER":312.6664,"MEAN_ANOMALY":47.3887,"EPHEMERIS_TYPE":0,"CLASSIFICATION_TYPE":"U","NORAD_CAT_ID":28353,"ELEMENT_SET_NO":999,"REV_AT_EPOCH":12910,"BSTAR":-7.4104701e-5,"MEAN_MOTION_DOT":-1.9e-6,"MEAN_MOTION_DDOT":0},{"OBJECT_NAME":"CZ-4B R/B","OBJECT_ID":"2004-035C","EPOCH":"2026-04-23T01:42:34.472448","MEAN_MOTION":15.29775329,"ECCENTRICITY":0.00320982,"INCLINATION":97.3427,"RA_OF_ASC_NODE":146.7874,"ARG_OF_PERICENTER":167.8989,"MEAN_ANOMALY":192.303,"EPHEMERIS_TYPE":0,"CLASSIFICATION_TYPE":"U","NORAD_CAT_ID":28415,"ELEMENT_SET_NO":999,"REV_AT_EPOCH":18669,"BSTAR":0.00019605911,"MEAN_MOTION_DOT":5.664e-5,"MEAN_MOTION_DDOT":0},{"OBJECT_NAME":"CZ-2C R/B","OBJECT_ID":"2004-046B","EPOCH":"2026-04-23T03:36:31.021056","MEAN_MOTION":14.2700908,"ECCENTRICITY":0.01399835,"INCLINATION":98.1969,"RA_OF_ASC_NODE":25.3628,"ARG_OF_PERICENTER":23.8893,"MEAN_ANOMALY":336.8702,"EPHEMERIS_TYPE":0,"CLASSIFICATION_TYPE":"U","NORAD_CAT_ID":28480,"ELEMENT_SET_NO":999,"REV_AT_EPOCH":11484,"BSTAR":5.6638006e-5,"MEAN_MOTION_DOT":1.12e-6,"MEAN_MOTION_DDOT":0},{"OBJECT_NAME":"ARIANE 5 R/B","OBJECT_ID":"2004-049H","EPOCH":"2026-04-23T00:39:27.631296","MEAN_MOTION":14.85347279,"ECCENTRICITY":0.00834928,"INCLINATION":98.2687,"RA_OF_ASC_NODE":283.1634,"ARG_OF_PERICENTER":206.5961,"MEAN_ANOMALY":153.0958,"EPHEMERIS_TYPE":0,"CLASSIFICATION_TYPE":"U","NORAD_CAT_ID":28499,"ELEMENT_SET_NO":999,"REV_AT_EPOCH":15237,"BSTAR":8.1280448e-5,"MEAN_MOTION_DOT":6.78e-6,"MEAN_MOTION_DDOT":0},{"OBJECT_NAME":"CZ-2D R/B","OBJECT_ID":"2005-024B","EPOCH":"2026-04-23T00:49:49.222272","MEAN_MOTION":15.64129163,"ECCENTRICITY":0.00043448,"INCLINATION":97.3549,"RA_OF_ASC_NODE":129.9378,"ARG_OF_PERICENTER":177.486,"MEAN_ANOMALY":182.6422,"EPHEMERIS_TYPE":0,"CLASSIFICATION_TYPE":"U","NORAD_CAT_ID":28738,"ELEMENT_SET_NO":999,"REV_AT_EPOCH":14670,"BSTAR":0.00038637863,"MEAN_MOTION_DOT":0.00036603,"MEAN_MOTION_DDOT":0}]
