HELIOS 1B               
1 25977U 99064A   26113.16939677  .00001000  00000+0  11575-3 0  9991
2 25977  98.1654  16.7125 0000436  63.0321 297.0939 14.87852397691879
TERRA                   
1 25994U 99068A   26113.23261263  .00000266  00000+0  63235-4 0  9995
2 25994  97.9507 164.9452 0003326  62.1135   8.7855 14.61057713401587
SL-16 R/B               
1 26070U 00006B   26113.09883839  .00000171  00000+0  11086-3 0  9999
2 26070  71.0044   4.4595 0014657 117.7026 242.5586 14.15829081354842
TITAN 4B R/B            
1 26474U 00047B   26113.21612695  .00002009  00000+0  12963-3 0  9993
2 26474  67.9883 275.2660 0042227 344.4870  15.4981 15.09897409399631
ENVISAT                 
1 27386U 02009A   26113.10202031  .00000074  00000+0  37814-4 0  9996
2 27386  98.3794  65.6624 0001148  86.2003 284.6312 14.39051004265567
IDEFIX & ARIANE 42P R/B 
1 27422U 02021B   26113.24413442  .00000173  00000+0  82077-4 0  9997
2 27422  98.5918  51.3323 0012899  59.0962 301.1487 14.31053945250394
AQUA                    
1 27424U 02022A   26113.24794432  .00000607  00000+0  13075-3 0  9994
2 27424  98.4241  81.4499 0001991  99.0164  14.0495 14.62068599275246
CZ-4B R/B               
1 27432U 02024C   26113.13119429  .00000013  00000+0  29657-4 0  9995
2 27432  98.8750 166.2947 0049099 256.4402 122.6457 14.14555130235529
MIDORI II (ADEOS-II)    
1 27597U 02056A   26113.11618401  .00000208  00000+0  99433-4 0  9999
2 27597  98.7838  71.9226 0000665 146.1334 213.9890 14.29316537216643
H-2A R/B                
1 27601U 02056E   26113.32162955  .00000245  00000+0  10031-3 0  9993
2 27601  98.3273  72.0097 0070899  29.5538 139.6175 14.33791125220507
CZ-4B R/B               
1 28059U 03049C   26112.94451852  .00000263  00000+0  71783-4 0  9990
2 28059  98.6900 109.5967 0049338  96.5211 264.1605 14.55057260193031
CZ-2C R/B               
1 28222U 04012C   26113.17390202  .00053107  00000+0  43962-3 0  9992
2 28222  97.7136 182.8520 0013912 145.1781 215.0394 15.69980463211245
SL-16 R/B               
1 28353U 04021B   26113.00586696 -.00000190  00000+0 -74105-4 0  9993
2 28353  70.9991 139.4950 0006766 312.6664  47.3887 14.14605099129101
CZ-4B R/B               
1 28415U 04035C   26113.07123232  .00005664  00000+0  19606-3 0  9990
2 28415  97.3427 146.7874 0032098 167.8989 192.3030 15.29775329186699
CZ-2C R/B               
1 28480U 04046B   26113.15035904  .00000112  00000+0  56638-4 0  9991
2 28480  98.1969  25.3628 0139983  23.8893 336.8702 14.27009080114846
ARIANE 5 R/B            
1 28499U 04049H   26113.02740314  .00000678  00000+0  81280-4 0  9996
2 28499  98.2687 283.1634 0083492 206.5961 153.0958 14.85347279152375
CZ-2D R/B               
1 28738U 05024B   26113.03459748  .00036603  00000+0  38638-3 0  9990
2 28738  97.3549 129.9378 0004344 177.4860 182.6422 15.64129163146705
